[{"OBJECT_NAME":"YAOGAN-12","OBJECT_ID":"2011-066B","EPOCH":"2026-03-09T23:39:51.505056","MEAN_MOTION":15.25407482,"ECCENTRICITY":0.00091131,"INCLINATION":97.1283,"RA_OF_ASC_NODE":112.2403,"ARG_OF_PERICENTER":209.5466,"MEAN_ANOMALY":150.5259,"EPHEMERIS_TYPE":0,"CLASSIFICATION_TYPE":"U","NORAD_CAT_ID":37875,"ELEMENT_SET_NO":999,"REV_AT_EPOCH":79691,"BSTAR":0.0002218082,"MEAN_MOTION_DOT":5.54e-5,"MEAN_MOTION_DDOT":0},{"OBJECT_NAME":"OBJECT D","OBJECT_ID":"2024-153D","EPOCH":"2026-03-09T23:34:15.763296","MEAN_MOTION":15.24738931,"ECCENTRICITY":0.00026819,"INCLINATION":97.6632,"RA_OF_ASC_NODE":204.2425,"ARG_OF_PERICENTER":164.3,"MEAN_ANOMALY":195.8321,"EPHEMERIS_TYPE":0,"CLASSIFICATION_TYPE":"U","NORAD_CAT_ID":60748,"ELEMENT_SET_NO":999,"REV_AT_EPOCH":8471,"BSTAR":0.00086014823,"MEAN_MOTION_DOT":0.00021266,"MEAN_MOTION_DDOT":0}]
